{"type": "FeatureCollection", "features": [ {"type": "Feature", "properties": {"norad_id": 66486, "name": "STARLINK-34844", "group": "last-30-days", "lat": 21.466566769552706, "lon": -95.84950063011406, "alt_km": 413.50835912536604, "timestamp": "2025-12-15T11:38:35.904458+00:00", "meta": {"OBJECT_NAME": "STARLINK-34844", "OBJECT_ID": "2025-263B", "EPOCH": "2025-12-13T18:48:59.664960", "MEAN_MOTION": 15.50521682, "ECCENTRICITY": 0.00040201, "INCLINATION": 43.0013, "RA_OF_ASC_NODE": 119.0631, "ARG_OF_PERICENTER": 285.7981, "MEAN_ANOMALY": 74.2436, "EPHEMERIS_TYPE": 0, "CLASSIFICATION_TYPE": "U", "NORAD_CAT_ID": 66486, "ELEMENT_SET_NO": 999, "REV_AT_EPOCH": 567, "BSTAR": 0.0010716993, "MEAN_MOTION_DOT": 0.00062922, "MEAN_MOTION_DDOT": 0}, "tle": {"line1": "1 66486U 25263B   25347.78402390  .00062922  00000+0  10717-2 0  9990", "line2": "2 66486  43.0013 119.0631 0004020 285.7981  74.2436 15.50521682  5679"}}, "geometry": {"type": "Point", "coordinates": [-95.84950063011406, 21.466566769552706]}}, {"type": "Feature", "properties": {"norad_id": 66487, "name": "STARLINK-34733", "group": "last-30-days", "lat": 23.738617526272932, "lon": 137.54317747260143, "alt_km": 440.64131683145024, "timestamp": "2025-12-15T11:38:35.904469+00:00", "meta": {"OBJECT_NAME": "STARLINK-34733", "OBJECT_ID": "2025-263C", "EPOCH": "2025-12-14T20:00:06.000192", "MEAN_MOTION": 15.40655059, "ECCENTRICITY": 0.00016311, "INCLINATION": 42.9999, "RA_OF_ASC_NODE": 113.1398, "ARG_OF_PERICENTER": 272.3201, "MEAN_ANOMALY": 104.7436, "EPHEMERIS_TYPE": 0, "CLASSIFICATION_TYPE": "U", "NORAD_CAT_ID": 66487, "ELEMENT_SET_NO": 999, "REV_AT_EPOCH": 597, "BSTAR": 0.0019906325, "MEAN_MOTION_DOT": 0.00083642, "MEAN_MOTION_DDOT": 0}, "tle": {"line1": "1 66487U 25263C   25348.83340278  .00083642  00000+0  19906-2 0  9995", "line2": "2 66487  42.9999 113.1398 0001631 272.3201 104.7436 15.40655059  5975"}}, "geometry": {"type": "Point", "coordinates": [137.54317747260143, 23.738617526272932]}}, {"type": "Feature", "properties": {"norad_id": 66488, "name": "STARLINK-35515", "group": "last-30-days", "lat": 18.80446108612209, "lon": -92.33423627405979, "alt_km": 412.84103620874066, "timestamp": "2025-12-15T11:38:35.904480+00:00", "meta": {"OBJECT_NAME": "STARLINK-35515", "OBJECT_ID": "2025-263D", "EPOCH": "2025-12-14T10:15:34.696224", "MEAN_MOTION": 15.50652165, "ECCENTRICITY": 0.00032268, "INCLINATION": 42.9995, "RA_OF_ASC_NODE": 115.2892, "ARG_OF_PERICENTER": 283.9292, "MEAN_ANOMALY": 76.1209, "EPHEMERIS_TYPE": 0, "CLASSIFICATION_TYPE": "U", "NORAD_CAT_ID": 66488, "ELEMENT_SET_NO": 999, "REV_AT_EPOCH": 582, "BSTAR": 0.0017633828, "MEAN_MOTION_DOT": 0.00104787, "MEAN_MOTION_DDOT": 0}, "tle": {"line1": "1 66488U 25263D   25348.42748491  .00104787  00000+0  17634-2 0  9990", "line2": "2 66488  42.9995 115.2892 0003226 283.9292  76.1209 15.50652165  5824"}}, "geometry": {"type": "Point", "coordinates": [-92.33423627405979, 18.80446108612209]}}, {"type": "Feature", "properties": {"norad_id": 66489, "name": "STARLINK-35696", "group": "last-30-days", "lat": 17.941541279051286, "lon": -91.23664900757801, "alt_km": 412.4509442052995, "timestamp": "2025-12-15T11:38:35.904490+00:00", "meta": {"OBJECT_NAME": "STARLINK-35696", "OBJECT_ID": "2025-263E", "EPOCH": "2025-12-14T17:58:51.161664", "MEAN_MOTION": 15.50551261, "ECCENTRICITY": 0.00022268, "INCLINATION": 42.9995, "RA_OF_ASC_NODE": 113.4024, "ARG_OF_PERICENTER": 255.5949, "MEAN_ANOMALY": 104.4664, "EPHEMERIS_TYPE": 0, "CLASSIFICATION_TYPE": "U", "NORAD_CAT_ID": 66489, "ELEMENT_SET_NO": 999, "REV_AT_EPOCH": 587, "BSTAR": 0.0011085346, "MEAN_MOTION_DOT": 0.00065172, "MEAN_MOTION_DDOT": 0}, "tle": {"line1": "1 66489U 25263E   25348.74920326  .00065172  00000+0  11085-2 0  9993", "line2": "2 66489  42.9995 113.4024 0002226 255.5949 104.4664 15.50551261  5875"}}, "geometry": {"type": "Point", "coordinates": [-91.23664900757801, 17.941541279051286]}}, {"type": "Feature", "properties": {"norad_id": 66490, "name": "STARLINK-35693", "group": "last-30-days", "lat": -0.778568971447749, "lon": 108.63698958290405, "alt_km": 443.323376680165, "timestamp": "2025-12-15T11:38:35.904500+00:00", "meta": {"OBJECT_NAME": "STARLINK-35693", "OBJECT_ID": "2025-263F", "EPOCH": "2025-12-14T20:00:06.000192", "MEAN_MOTION": 15.40667843, "ECCENTRICITY": 0.00018168, "INCLINATION": 42.9998, "RA_OF_ASC_NODE": 113.2293, "ARG_OF_PERICENTER": 282.1831, "MEAN_ANOMALY": 57.5319, "EPHEMERIS_TYPE": 0, "CLASSIFICATION_TYPE": "U", "NORAD_CAT_ID": 66490, "ELEMENT_SET_NO": 999, "REV_AT_EPOCH": 597, "BSTAR": 0.001993889, "MEAN_MOTION_DOT": 0.00083817, "MEAN_MOTION_DDOT": 0}, "tle": {"line1": "1 66490U 25263F   25348.83340278  .00083817  00000+0  19939-2 0  9999", "line2": "2 66490  42.9998 113.2293 0001816 282.1831  57.5319 15.40667843  5975"}}, "geometry": {"type": "Point", "coordinates": [108.63698958290405, -0.778568971447749]}}, {"type": "Feature", "properties": {"norad_id": 66491, "name": "STARLINK-35663", "group": "last-30-days", "lat": 14.243553297905846, "lon": -86.72779863710379, "alt_km": 412.61146889169504, "timestamp": "2025-12-15T11:38:35.904526+00:00", "meta": {"OBJECT_NAME": "STARLINK-35663", "OBJECT_ID": "2025-263G", "EPOCH": "2025-12-14T17:57:25.207488", "MEAN_MOTION": 15.50581981, "ECCENTRICITY": 6.799e-05, "INCLINATION": 43.0002, "RA_OF_ASC_NODE": 113.3919, "ARG_OF_PERICENTER": 268.3335, "MEAN_ANOMALY": 91.7447, "EPHEMERIS_TYPE": 0, "CLASSIFICATION_TYPE": "U", "NORAD_CAT_ID": 66491, "ELEMENT_SET_NO": 999, "REV_AT_EPOCH": 587, "BSTAR": 0.0013451244, "MEAN_MOTION_DOT": 0.00079382, "MEAN_MOTION_DDOT": 0}, "tle": {"line1": "1 66491U 25263G   25348.74820842  .00079382  00000+0  13451-2 0  9995", "line2": "2 66491  43.0002 113.3919 0000679 268.3335  91.7447 15.50581981  5871"}}, "geometry": {"type": "Point", "coordinates": [-86.72779863710379, 14.243553297905846]}}, {"type": "Feature", "properties": {"norad_id": 66492, "name": "STARLINK-35673", "group": "last-30-days", "lat": -17.368489114499383, "lon": 89.92059289825883, "alt_km": 444.6639521430898, "timestamp": "2025-12-15T11:38:35.904539+00:00", "meta": {"OBJECT_NAME": "STARLINK-35673", "OBJECT_ID": "2025-263H", "EPOCH": "2025-12-14T20:00:06.000192", "MEAN_MOTION": 15.40670284, "ECCENTRICITY": 0.00015993, "INCLINATION": 43, "RA_OF_ASC_NODE": 113.2895, "ARG_OF_PERICENTER": 285.8795, "MEAN_ANOMALY": 28.9678, "EPHEMERIS_TYPE": 0, "CLASSIFICATION_TYPE": "U", "NORAD_CAT_ID": 66492, "ELEMENT_SET_NO": 999, "REV_AT_EPOCH": 597, "BSTAR": 0.0025644682, "MEAN_MOTION_DOT": 0.00108246, "MEAN_MOTION_DDOT": 0}, "tle": {"line1": "1 66492U 25263H   25348.83340278  .00108246  00000+0  25645-2 0  9996", "line2": "2 66492  43.0000 113.2895 0001599 285.8795  28.9678 15.40670284  5971"}}, "geometry": {"type": "Point", "coordinates": [89.92059289825883, -17.368489114499383]}}, {"type": "Feature", "properties": {"norad_id": 66493, "name": "STARLINK-35597", "group": "last-30-days", "lat": 23.31967906537272, "lon": -98.43512836658999, "alt_km": 431.97421938026764, "timestamp": "2025-12-15T11:38:35.904551+00:00", "meta": {"OBJECT_NAME": "STARLINK-35597", "OBJECT_ID": "2025-263J", "EPOCH": "2025-12-14T20:00:06.000192", "MEAN_MOTION": 15.46698704, "ECCENTRICITY": 0.00018701, "INCLINATION": 43.0003, "RA_OF_ASC_NODE": 112.9024, "ARG_OF_PERICENTER": 292.1538, "MEAN_ANOMALY": 182.2128, "EPHEMERIS_TYPE": 0, "CLASSIFICATION_TYPE": "U", "NORAD_CAT_ID": 66493, "ELEMENT_SET_NO": 999, "REV_AT_EPOCH": 597, "BSTAR": -0.041931625, "MEAN_MOTION_DOT": -0.01924208, "MEAN_MOTION_DDOT": 0}, "tle": {"line1": "1 66493U 25263J   25348.83340278 -.01924208  00000+0 -41932-1 0  9990", "line2": "2 66493  43.0003 112.9024 0001870 292.1538 182.2128 15.46698704  5970"}}, "geometry": {"type": "Point", "coordinates": [-98.43512836658999, 23.31967906537272]}}, {"type": "Feature", "properties": {"norad_id": 66494, "name": "STARLINK-35689", "group": "last-30-days", "lat": 40.83405745129512, "lon": 177.32753544582053, "alt_km": 438.0613699406704, "timestamp": "2025-12-15T11:38:35.904562+00:00", "meta": {"OBJECT_NAME": "STARLINK-35689", "OBJECT_ID": "2025-263K", "EPOCH": "2025-12-14T20:00:06.000192", "MEAN_MOTION": 15.40652606, "ECCENTRICITY": 0.00012484, "INCLINATION": 42.9999, "RA_OF_ASC_NODE": 113.0484, "ARG_OF_PERICENTER": 280.2589, "MEAN_ANOMALY": 134.1335, "EPHEMERIS_TYPE": 0, "CLASSIFICATION_TYPE": "U", "NORAD_CAT_ID": 66494, "ELEMENT_SET_NO": 999, "REV_AT_EPOCH": 597, "BSTAR": 0.0021649222, "MEAN_MOTION_DOT": 0.00091073, "MEAN_MOTION_DDOT": 0}, "tle": {"line1": "1 66494U 25263K   25348.83340278  .00091073  00000+0  21649-2 0  9997", "line2": "2 66494  42.9999 113.0484 0001248 280.2589 134.1335 15.40652606  5979"}}, "geometry": {"type": "Point", "coordinates": [177.32753544582053, 40.83405745129512]}}, {"type": "Feature", "properties": {"norad_id": 66495, "name": "STARLINK-35832", "group": "last-30-days", "lat": 42.39849415546607, "lon": -149.2482514118146, "alt_km": 438.45277719824117, "timestamp": "2025-12-15T11:38:35.904572+00:00", "meta": {"OBJECT_NAME": "STARLINK-35832", "OBJECT_ID": "2025-263L", "EPOCH": "2025-12-14T20:00:06.000192", "MEAN_MOTION": 15.40639613, "ECCENTRICITY": 0.00020774, "INCLINATION": 43.0001, "RA_OF_ASC_NODE": 112.986, "ARG_OF_PERICENTER": 291.3839, "MEAN_ANOMALY": 147.9158, "EPHEMERIS_TYPE": 0, "CLASSIFICATION_TYPE": "U", "NORAD_CAT_ID": 66495, "ELEMENT_SET_NO": 999, "REV_AT_EPOCH": 597, "BSTAR": 0.0023357748, "MEAN_MOTION_DOT": 0.00098338, "MEAN_MOTION_DDOT": 0}, "tle": {"line1": "1 66495U 25263L   25348.83340278  .00098338  00000+0  23358-2 0  9998", "line2": "2 66495  43.0001 112.9860 0002077 291.3839 147.9158 15.40639613  5972"}}, "geometry": {"type": "Point", "coordinates": [-149.2482514118146, 42.39849415546607]}}]}